NORAD_CAT_ID,OBJECT_NAME,OBJECT_TYPE,EPOCH,MEAN_MOTION,ECCENTRICITY,INCLINATION,RA_OF_ASC_NODE,ARG_OF_PERICENTER,MEAN_ANOMALY,BSTAR,MEAN_MOTION_DOT,MEAN_MOTION_DDOT,TLE_LINE0,TLE_LINE1,TLE_LINE2,SEMIMAJOR_AXIS,PERIOD,APOGEE,PERIGEE,DECAYED
55644.0,STARLINK-5502,PAYLOAD,2023-10-21 11:57:54,14.98392285,0.0003114,70.0015,218.5776,264.5204,95.56,-0.0010224,-0.00012291,0.0,0 STARLINK-5502,1 55644U 23021S   23294.49854975 -.00012291  00000-0 -10224-2 0  9991,2 55644  70.0015 218.5776 0003114 264.5204  95.5600 14.98392285 38442,6950.0,96.103,574.03,569.701,0.0
55644.0,STARLINK-5502,PAYLOAD,2023-10-21 19:58:35,14.98336346,0.0002796,70.0017,217.7354,272.2453,87.8385,0.00011946,1.333e-05,0.0,0 STARLINK-5502,1 55644U 23021S   23294.83235751  .00001333  00000-0  11946-3 0  9990,2 55644  70.0017 217.7354 0002796 272.2453  87.8385 14.98336346 38196,6950.173,96.107,573.982,570.095,0.0
55644.0,STARLINK-5502,PAYLOAD,2023-10-21 21:34:43,14.98334981,0.0002661,70.0017,217.5674,271.167,88.9184,0.00019663,2.254e-05,0.0,0 STARLINK-5502,1 55644U 23021S   23294.89911564  .00002254  00000-0  19663-3 0  9996,2 55644  70.0017 217.5674 0002661 271.1670  88.9184 14.98334981 38506,6950.177,96.107,573.892,570.193,0.0
55644.0,STARLINK-5502,PAYLOAD,2023-10-22 11:59:56,14.98342221,0.000237,70.0022,216.0523,281.2466,78.8427,-0.00021055,-2.605e-05,0.0,0 STARLINK-5502,1 55644U 23021S   23295.49995963 -.00002605  00000-0 -21055-3 0  9998,2 55644  70.0022 216.0523 0002370 281.2466  78.8427 14.98342221 38594,6950.155,96.106,573.667,570.373,0.0
55644.0,STARLINK-5502,PAYLOAD,2023-10-22 20:00:38,14.98314193,0.000287,70.0013,215.2121,269.5948,90.4882,-0.00017479,-2.177e-05,0.0,0 STARLINK-5502,1 55644U 23021S   23295.83377798 -.00002177  00000-0 -17479-3 0  9995,2 55644  70.0013 215.2121 0002870 269.5948  90.4882 14.98314193 38343,6950.242,96.108,574.101,570.112,0.0
55644.0,STARLINK-5502,PAYLOAD,2023-10-22 21:36:46,14.98311703,0.000266,70.0019,215.0437,267.7775,92.308,-0.00012665,-1.603e-05,0.0,0 STARLINK-5502,1 55644U 23021S   23295.90053853 -.00001603  00000-0 -12665-3 0  9991,2 55644  70.0019 215.0437 0002660 267.7775  92.3080 14.98311703 38651,6950.249,96.108,573.963,570.266,0.0
55644.0,STARLINK-5502,PAYLOAD,2023-10-23 12:01:58,14.9832427,0.0002968,70.0009,213.5276,272.9404,87.1416,-9.3211e-05,-1.205e-05,0.0,0 STARLINK-5502,1 55644U 23021S   23296.50137346 -.00001205  00000-0 -93211-4 0  9993,2 55644  70.0009 213.5276 0002968 272.9404  87.1416 14.98324270 38447,6950.211,96.107,574.138,570.013,0.0
55644.0,STARLINK-5502,PAYLOAD,2023-10-23 21:38:46,14.98330882,0.0002972,70.0008,212.517,274.7208,85.3612,-9.9109e-05,-1.275e-05,0.0,0 STARLINK-5502,1 55644U 23021S   23296.90193021 -.00001275  00000-0 -99109-4 0  9998,2 55644  70.0008 212.5170 0002972 274.7208  85.3612 14.98330882 38809,6950.19,96.107,574.121,569.99,0.0
55644.0,STARLINK-5502,PAYLOAD,2023-10-24 04:03:18,14.98332865,0.0002501,70.0012,211.8441,266.5491,93.5382,5.1816e-05,5.25e-06,0.0,0 STARLINK-5502,1 55644U 23021S   23297.16896445  .00000525  00000-0  51816-4 0  9995,2 55644  70.0012 211.8441 0002501 266.5491  93.5382 14.98332865 38547,6950.184,96.107,573.787,570.311,0.0
55644.0,STARLINK-5502,PAYLOAD,2023-10-24 12:03:58,14.98343504,0.0002634,70.0017,211.0025,274.5217,85.5641,-0.00019245,-2.389e-05,0.0,0 STARLINK-5502,1 55644U 23021S   23297.50276283 -.00002389  00000-0 -19245-3 0  9996,2 55644  70.0017 211.0025 0002634 274.5217  85.5641 14.98343504 38893,6950.151,96.106,573.847,570.185,0.0
55644.0,STARLINK-5502,PAYLOAD,2023-10-25 21:42:48,14.98329924,0.000277,70.0021,207.4687,274.5974,85.4869,7.2726e-06,-6e-08,0.0,0 STARLINK-5502,1 55644U 23021S   23298.90472665 -.00000006  00000-0  72726-5 0  9991,2 55644  70.0021 207.4687 0002770 274.5974  85.4869 14.98329924 38804,6950.193,96.107,573.983,570.133,0.0
55644.0,STARLINK-5502,PAYLOAD,2023-10-26 04:07:20,14.98333353,0.0002576,70.0016,206.795,267.7459,92.3405,1.507e-05,8.7e-07,0.0,0 STARLINK-5502,1 55644U 23021S   23299.17176355  .00000087  00000-0  15070-4 0  9994,2 55644  70.0016 206.7950 0002576 267.7459  92.3405 14.98333353 39141,6950.183,96.107,573.838,570.257,0.0
55644.0,STARLINK-5502,PAYLOAD,2023-10-26 21:44:48,14.98335932,0.000273,70.0013,204.9434,272.1064,87.9783,-2.7789e-05,-4.25e-06,0.0,0 STARLINK-5502,1 55644U 23021S   23299.90612015 -.00000425  00000-0 -27789-4 0  9991,2 55644  70.0013 204.9434 0002730 272.1064  87.9783 14.98335932 39255,6950.175,96.107,573.937,570.142,0.0
55644.0,STARLINK-5502,PAYLOAD,2023-10-27 04:09:20,14.98344044,0.0002745,70.0011,204.2711,269.6635,90.421,9.2501e-06,1.7e-07,0.0,0 STARLINK-5502,1 55644U 23021S   23300.17315203  .00000017  00000-0  92501-5 0  9992,2 55644  70.0011 204.2711 0002745 269.6635  90.4210 14.98344044 38993,6950.149,96.106,573.922,570.107,0.0
55644.0,STARLINK-5502,PAYLOAD,2023-10-27 10:33:52,14.98344364,0.0002715,70.0023,203.5961,278.2402,81.8449,-0.00024272,-2.989e-05,0.0,0 STARLINK-5502,1 55644U 23021S   23300.44019668 -.00002989  00000-0 -24272-3 0  9998,2 55644  70.0023 203.5961 0002715 278.2402  81.8449 14.98344364 39332,6950.148,96.106,573.9,570.127,0.0
55644.0,STARLINK-5502,PAYLOAD,2023-10-27 16:58:25,14.98325486,0.0002256,70.0031,202.9245,269.306,90.7841,5.7727e-06,-2.4e-07,0.0,0 STARLINK-5502,1 55644U 23021S   23300.70724323 -.00000024  00000-0  57727-5 0  9998,2 55644  70.0031 202.9245 0002256 269.3060  90.7841 14.98325486 39070,6950.207,96.107,573.64,570.504,0.0
55644.0,STARLINK-5502,PAYLOAD,2023-10-27 21:46:50,14.9832376,0.0002525,70.0026,202.4195,274.7944,85.2926,-2.1176e-06,-1.18e-06,0.0,0 STARLINK-5502,1 55644U 23021S   23300.90752498 -.00000118  00000-0 -21176-5 0  9998,2 55644  70.0026 202.4195 0002525 274.7944  85.2926 14.98323760 39406,6950.212,96.107,573.832,570.322,0.0
55644.0,STARLINK-5502,PAYLOAD,2023-10-28 10:35:54,14.98327662,0.0002589,70.0013,201.0727,274.2204,85.8659,-5.6562e-05,-7.68e-06,0.0,0 STARLINK-5502,1 55644U 23021S   23301.44160475 -.00000768  00000-0 -56562-4 0  9993,2 55644  70.0013 201.0727 0002589 274.2204  85.8659 14.98327662 39484,6950.2,96.107,573.865,570.266,0.0
55644.0,STARLINK-5502,PAYLOAD,2023-10-28 20:12:42,14.98331957,0.0002708,70.0009,200.0641,267.5267,92.5582,-4.3818e-05,-6.16e-06,0.0,0 STARLINK-5502,1 55644U 23021S   23301.84216131 -.00000616  00000-0 -43818-4 0  9990,2 55644  70.0009 200.0641 0002708 267.5267  92.5582 14.98331957 39246,6950.187,96.107,573.934,570.17,0.0
55644.0,STARLINK-5502,PAYLOAD,2023-10-28 21:48:50,14.98331802,0.0002676,70.001,199.8957,267.9961,92.0892,-2.8874e-05,-4.37e-06,0.0,0 STARLINK-5502,1 55644U 23021S   23301.90892095 -.00000437  00000-0 -28874-4 0  9992,2 55644  70.0010 199.8957 0002676 267.9961  92.0892 14.98331802 39554,6950.187,96.107,573.912,570.192,0.0
55644.0,STARLINK-5502,PAYLOAD,2023-10-29 10:37:55,14.98336382,0.0002725,70.0009,198.5484,272.4938,87.5909,-0.00016072,-2.01e-05,0.0,0 STARLINK-5502,1 55644U 23021S   23302.44300013 -.00002010  00000-0 -16072-3 0  9991,2 55644  70.0009 198.5484 0002725 272.4938  87.5909 14.98336382 39638,6950.173,96.107,573.932,570.144,0.0
55644.0,STARLINK-5502,PAYLOAD,2023-10-29 20:14:43,14.98323019,0.0002824,70.0007,197.5383,273.9691,86.1145,3.3607e-05,3.08e-06,0.0,0 STARLINK-5502,1 55644U 23021S   23302.84356418  .00000308  00000-0  33607-4 0  9995,2 55644  70.0007 197.5383 0002824 273.9691  86.1145 14.98323019 39398,6950.214,96.107,574.042,570.117,0.0
55644.0,STARLINK-5502,PAYLOAD,2023-10-29 21:50:51,14.98323752,0.0002785,70.0006,197.3696,275.4272,84.6569,4.3268e-05,4.23e-06,0.0,0 STARLINK-5502,1 55644U 23021S   23302.91032382  .00000423  00000-0  43268-4 0  9996,2 55644  70.0006 197.3696 0002785 275.4272  84.6569 14.98323752 39702,6950.212,96.107,574.013,570.142,0.0
55644.0,STARLINK-5502,PAYLOAD,2023-10-30 02:39:15,14.98329094,0.0002771,70.0004,196.8644,269.3565,90.7276,8.7132e-05,9.47e-06,0.0,0 STARLINK-5502,1 55644U 23021S   23303.11059905  .00000947  00000-0  87132-4 0  9998,2 55644  70.0004 196.8644 0002771 269.3565  90.7276 14.98329094 39437,6950.196,96.107,573.987,570.135,0.0
55644.0,STARLINK-5502,PAYLOAD,2023-10-30 20:16:45,14.98323951,0.0002719,70.0012,195.0137,271.0452,89.0395,-4.4669e-05,-6.26e-06,0.0,0 STARLINK-5502,1 55644U 23021S   23303.84496792 -.00000626  00000-0 -44669-4 0  9991,2 55644  70.0012 195.0137 0002719 271.0452  89.0395 14.98323951 39542,6950.212,96.107,573.966,570.187,0.0
55644.0,STARLINK-5502,PAYLOAD,2023-10-30 21:52:53,14.98324123,0.000269,70.0011,194.8453,271.151,88.9341,-4.9018e-05,-6.78e-06,0.0,0 STARLINK-5502,1 55644U 23021S   23303.91172825 -.00000678  00000-0 -49018-4 0  9997,2 55644  70.0011 194.8453 0002690 271.1510  88.9341 14.98324123 39858,6950.211,96.107,573.946,570.206,0.0
55644.0,STARLINK-5502,PAYLOAD,2023-10-31 02:41:17,14.9832911,0.0002748,70.0005,194.3398,267.5525,92.5319,-3.4433e-05,-5.04e-06,0.0,0 STARLINK-5502,1 55644U 23021S   23304.11200451 -.00000504  00000-0 -34433-4 0  9990,2 55644  70.0005 194.3398 0002748 267.5525  92.5319 14.98329110 39883,6950.196,96.107,573.971,570.151,0.0
55644.0,STARLINK-5502,PAYLOAD,2023-10-31 20:18:45,14.98330007,0.0002954,70.0004,192.4886,268.6491,91.4329,5.7898e-05,5.98e-06,0.0,0 STARLINK-5502,1 55644U 23021S   23304.84636100  .00000598  00000-0  57898-4 0  9995,2 55644  70.0004 192.4886 0002954 268.6491  91.4329 14.98330007 39691,6950.193,96.107,574.111,570.005,0.0
55644.0,STARLINK-5502,PAYLOAD,2023-10-31 21:54:53,14.98328915,0.0002983,70.0009,192.3204,269.0938,90.988,4.8173e-05,4.82e-06,0.0,0 STARLINK-5502,1 55644U 23021S   23304.91312199  .00000482  00000-0  48173-4 0  9990,2 55644  70.0009 192.3204 0002983 269.0938  90.9880 14.98328915 40000,6950.196,96.107,574.134,569.988,0.0
55644.0,STARLINK-5502,PAYLOAD,2023-11-01 02:43:17,14.98337086,0.0003005,70.0002,191.8153,268.7366,91.3449,0.00011475,1.277e-05,0.0,0 STARLINK-5502,1 55644U 23021S   23305.11339474  .00001277  00000-0  11475-3 0  9995,2 55644  70.0002 191.8153 0003005 268.7366  91.3449 14.98337086 39730,6950.171,96.107,574.125,569.947,0.0
